<?xml version="1.0" encoding="UTF-8"?>
<kml xmlns="http://www.opengis.net/kml/2.2" xmlns:gx="http://www.google.com/kml/ext/2.2" xmlns:kml="http://www.opengis.net/kml/2.2" xmlns:atom="http://www.w3.org/2005/Atom">
<Document>
	<name>Bases.kmz</name>
	<StyleMap id="__managed_style_08C3A00A423D3D1AF1E302">
		<Pair>
			<key>normal</key>
			<styleUrl>#__managed_style_109C7C0DF23D3D1AF1E3</styleUrl>
		</Pair>
		<Pair>
			<key>highlight</key>
			<styleUrl>#__managed_style_260BB5E02A3D3D1AF1E3</styleUrl>
		</Pair>
	</StyleMap>
	<StyleMap id="__managed_style_096CE0C23A3D3D1AF1E1">
		<Pair>
			<key>normal</key>
			<styleUrl>#__managed_style_13BED364533D3D1AF1E1</styleUrl>
		</Pair>
		<Pair>
			<key>highlight</key>
			<styleUrl>#__managed_style_2E06E2FFC63D3D1AF1E1</styleUrl>
		</Pair>
	</StyleMap>
	<StyleMap id="__managed_style_0A485733163D3D1AF223">
		<Pair>
			<key>normal</key>
			<styleUrl>#failed90</styleUrl>
		</Pair>
		<Pair>
			<key>highlight</key>
			<styleUrl>#failed01</styleUrl>
		</Pair>
	</StyleMap>
	<StyleMap id="__managed_style_0EA64D58BB3D3D1AF221">
		<Pair>
			<key>normal</key>
			<styleUrl>#failed100</styleUrl>
		</Pair>
		<Pair>
			<key>highlight</key>
			<styleUrl>#failed420</styleUrl>
		</Pair>
	</StyleMap>
	<StyleMap id="__managed_style_0FABFE49B53D3D1AF1E4">
		<Pair>
			<key>normal</key>
			<styleUrl>#failed60</styleUrl>
		</Pair>
		<Pair>
			<key>highlight</key>
			<styleUrl>#failed800</styleUrl>
		</Pair>
	</StyleMap>
	<StyleMap id="__managed_style_301C8CB4F33D3D1AF221">
		<Pair>
			<key>normal</key>
			<styleUrl>#failed7000</styleUrl>
		</Pair>
		<Pair>
			<key>highlight</key>
			<styleUrl>#failed000</styleUrl>
		</Pair>
	</StyleMap>
	<StyleMap id="__managed_style_3671F3F4983D3D1AF1E4">
		<Pair>
			<key>normal</key>
			<styleUrl>#failed1110</styleUrl>
		</Pair>
		<Pair>
			<key>highlight</key>
			<styleUrl>#failed500</styleUrl>
		</Pair>
	</StyleMap>
	<StyleMap id="__managed_style_69130AB1333D3D1AF1E4">
		<Pair>
			<key>normal</key>
			<styleUrl>#failed210</styleUrl>
		</Pair>
		<Pair>
			<key>highlight</key>
			<styleUrl>#failed310</styleUrl>
		</Pair>
	</StyleMap>
	<Style id="failed000">
		<LineStyle>
			<color>ff00ffff</color>
			<width>6.6</width>
		</LineStyle>
	</Style>
	<Style id="failed01">
		<LineStyle>
			<color>ffffff55</color>
			<width>6</width>
		</LineStyle>
	</Style>
	<Style id="failed100">
		<LineStyle>
			<color>ff00ffff</color>
			<width>6.6</width>
		</LineStyle>
	</Style>
	<Style id="failed1110">
		<IconStyle>
			<scale>1.2</scale>
			<Icon>
				<href>http://maps.google.com/mapfiles/kml/shapes/heliport.png</href>
			</Icon>
			<hotSpot x="0.5" y="0" xunits="fraction" yunits="fraction"/>
		</IconStyle>
	</Style>
	<Style id="failed210">
		<IconStyle>
			<Icon>
				<href>files/achssalud_logo.jpg</href>
			</Icon>
			<hotSpot x="0.5" y="0.5" xunits="fraction" yunits="fraction"/>
		</IconStyle>
	</Style>
	<Style id="failed310">
		<IconStyle>
			<Icon>
				<href>files/achssalud_logo.jpg</href>
			</Icon>
			<hotSpot x="0.5" y="0.5" xunits="fraction" yunits="fraction"/>
		</IconStyle>
	</Style>
	<Style id="failed420">
		<LineStyle>
			<color>ff00ffff</color>
			<width>6.6</width>
		</LineStyle>
	</Style>
	<Style id="failed500">
		<IconStyle>
			<scale>1.4</scale>
			<Icon>
				<href>http://maps.google.com/mapfiles/kml/shapes/heliport.png</href>
			</Icon>
			<hotSpot x="0.5" y="0" xunits="fraction" yunits="fraction"/>
		</IconStyle>
	</Style>
	<Style id="failed60">
		<IconStyle>
			<Icon>
				<href>files/Wvl9gSSp_400x400.jpg</href>
			</Icon>
			<hotSpot x="0.5" y="0.5" xunits="fraction" yunits="fraction"/>
		</IconStyle>
	</Style>
	<Style id="failed7000">
		<LineStyle>
			<color>ff00ffff</color>
			<width>6.6</width>
		</LineStyle>
	</Style>
	<Style id="failed800">
		<IconStyle>
			<Icon>
				<href>files/Wvl9gSSp_400x400.jpg</href>
			</Icon>
			<hotSpot x="0.5" y="0.5" xunits="fraction" yunits="fraction"/>
		</IconStyle>
	</Style>
	<Style id="failed90">
		<LineStyle>
			<color>ffffff55</color>
			<width>6</width>
		</LineStyle>
	</Style>
	<Folder id="01F695B2623310D69A0E">
		<name>Bases</name>
		<description><![CDATA[<div>Ubicación aproximada de bases de Brigadas Ambipar, Helipistas, Policlínicos, Salas de Primeros Auxilios y rutas (Mineroducto, G21-G245)</div>]]></description>
		<styleUrl>#__managed_style_096CE0C23A3D3D1AF1E1</styleUrl>
		<Folder id="0BFF4FA5BB3310D93548">
			<name>Brigadas</name>
			<styleUrl>#__managed_style_08C3A00A423D3D1AF1E302</styleUrl>
			<Placemark id="049C513FA73313E6E2ED">
				<name>Brigada La Ermita G21 - G245</name>
				<description><![CDATA[<div>Ruta G21 - G245&nbsp;<br></div><div>2 Respondedores<br></div><div>1 UIR<br></div>]]></description>
				<LookAt>
					<longitude>-70.39781964578965</longitude>
					<latitude>-33.36826315511418</latitude>
					<altitude>1171.40508169841</altitude>
					<heading>0</heading>
					<tilt>0</tilt>
					<range>127.2350657062088</range>
					<altitudeMode>absolute</altitudeMode>
					<gx:fovy>30.00011541178586</gx:fovy>
				</LookAt>
				<styleUrl>#__managed_style_0FABFE49B53D3D1AF1E4</styleUrl>
				<Point>
					<coordinates>-70.3977083968776,-33.36833805519444,1172.179219174576</coordinates>
				</Point>
			</Placemark>
			<Placemark id="0EE11C524F3313F6E094">
				<name>Brigada Los Bronces (Planta)</name>
				<description><![CDATA[<div>3 Respondedores<br></div><div>1 Carro Bomba<br></div>]]></description>
				<styleUrl>#__managed_style_0FABFE49B53D3D1AF1E4</styleUrl>
				<Point>
					<extrude>1</extrude>
					<coordinates>-70.28558084654009,-33.14651285693581,0</coordinates>
				</Point>
			</Placemark>
			<Placemark id="08999E98783313F823B3">
				<name>Brigada Mina LB</name>
				<description><![CDATA[<div>3 Respondedores<br></div><div>1 UIR<br></div>]]></description>
				<LookAt>
					<longitude>-70.28564164646613</longitude>
					<latitude>-33.14674998508703</latitude>
					<altitude>3409.273603585771</altitude>
					<heading>2.201112859381267</heading>
					<tilt>1.621943028786531</tilt>
					<range>73.23504294104168</range>
					<altitudeMode>absolute</altitudeMode>
					<gx:fovy>35</gx:fovy>
				</LookAt>
				<styleUrl>#__managed_style_0FABFE49B53D3D1AF1E4</styleUrl>
				<Point>
					<coordinates>-70.29343266978644,-33.15999780840388,3413.087413686206</coordinates>
				</Point>
			</Placemark>
			<Placemark id="0E1F17169C33140A07D4">
				<name>Brigada Mineroducto</name>
				<description><![CDATA[<div>2 Respondedores<br></div><div>1 Camioneta</div>]]></description>
				<styleUrl>#__managed_style_0FABFE49B53D3D1AF1E4</styleUrl>
				<Point>
					<extrude>1</extrude>
					<coordinates>-70.5402306,-33.1927139,0</coordinates>
				</Point>
			</Placemark>
			<Placemark id="043154087833140BD00D">
				<name>Brigada Las Tortolas</name>
				<description><![CDATA[<div>3 Respondedores<br></div><div>1 Carro Bomba<br></div>]]></description>
				<styleUrl>#__managed_style_0FABFE49B53D3D1AF1E4</styleUrl>
				<Point>
					<extrude>1</extrude>
					<coordinates>-70.69947648616636,-33.145694782435,0</coordinates>
				</Point>
			</Placemark>
		</Folder>
		<Folder id="0EE7636B263310D986F0">
			<name>Helipistas</name>
			<styleUrl>#__managed_style_08C3A00A423D3D1AF1E302</styleUrl>
			<Placemark id="058F940EB0331423AAB4">
				<name>Helipista Maitenes Bajo</name>
				<styleUrl>#__managed_style_3671F3F4983D3D1AF1E4</styleUrl>
				<Point>
					<extrude>1</extrude>
					<coordinates>-70.35873889999999,-33.3198222,0</coordinates>
				</Point>
			</Placemark>
			<Placemark id="0B870E96123314261952">
				<name>Helipista LT</name>
				<styleUrl>#__managed_style_3671F3F4983D3D1AF1E4</styleUrl>
				<Point>
					<extrude>1</extrude>
					<coordinates>-70.7127167,-33.1564056,0</coordinates>
				</Point>
			</Placemark>
			<Placemark id="0AF1570B0D33144C450B">
				<name>Helipista P.C</name>
				<styleUrl>#__managed_style_3671F3F4983D3D1AF1E4</styleUrl>
				<Point>
					<extrude>1</extrude>
					<coordinates>-70.3405806,-33.187475,0</coordinates>
				</Point>
			</Placemark>
			<Placemark id="084285CF3133145589FE">
				<name>Helipista 42,6</name>
				<styleUrl>#__managed_style_3671F3F4983D3D1AF1E4</styleUrl>
				<Point>
					<extrude>1</extrude>
					<coordinates>-70.31583329999999,-33.1514278,0</coordinates>
				</Point>
			</Placemark>
		</Folder>
		<Folder id="0EEAFCA80D3310DB6A03">
			<name>Policlinicos</name>
			<styleUrl>#__managed_style_08C3A00A423D3D1AF1E302</styleUrl>
			<Placemark id="08F2CF10BE331486D88F">
				<name>Sala Primeros Auxilios Perez Caldera</name>
				<styleUrl>#__managed_style_69130AB1333D3D1AF1E4</styleUrl>
				<Point>
					<extrude>1</extrude>
					<coordinates>-70.3393056,-33.1905556,0</coordinates>
				</Point>
			</Placemark>
			<Placemark id="019E77D1E133148928C6">
				<name>Policlinico 220</name>
				<styleUrl>#__managed_style_69130AB1333D3D1AF1E4</styleUrl>
				<Point>
					<extrude>1</extrude>
					<coordinates>-70.28563337813911,-33.14661683503342,0</coordinates>
				</Point>
			</Placemark>
			<Placemark id="02773F9EF333148E0A7A">
				<name>Policlinico Las Tortolas</name>
				<styleUrl>#__managed_style_69130AB1333D3D1AF1E4</styleUrl>
				<Point>
					<extrude>1</extrude>
					<coordinates>-70.69943889999999,-33.1455667,0</coordinates>
				</Point>
			</Placemark>
		</Folder>
		<Folder id="083E82A8A53310DB9635">
			<name>Rutas</name>
			<styleUrl>#__managed_style_08C3A00A423D3D1AF1E302</styleUrl>
			<Placemark id="0AAB8885993335E52929">
				<name>RUTA G21</name>
				<LookAt>
					<longitude>-70.49644779779818</longitude>
					<latitude>-33.36640132534222</latitude>
					<altitude>859.2521504123446</altitude>
					<heading>36.51223754090411</heading>
					<tilt>1.724252970933697</tilt>
					<range>781.5440148915513</range>
					<altitudeMode>absolute</altitudeMode>
					<gx:fovy>35.00010218633699</gx:fovy>
				</LookAt>
				<styleUrl>#__managed_style_0EA64D58BB3D3D1AF221</styleUrl>
				<LineString>
					<coordinates>
						-70.28525018712196,-33.14977542212616,0 -70.28569834699925,-33.14949735520101,0 -70.28570647327987,-33.14944254375014,0 -70.28571323185975,-33.14939658813899,0 -70.28571866748639,-33.14935969111265,0 -70.28572409219976,-33.14932287054663,0 -70.28573092852406,-33.14927680793367,0 -70.28572629357008,-33.14924820044439,0 -70.28572577223954,-33.1491917003529,0 -70.2857225012917,-33.14915352108632,0 -70.28571044747935,-33.14911413372106,0 -70.28571456385502,-33.14908620511048,0 -70.2857125985684,-33.14903835178235,0 -70.28570047725457,-33.14899863367665,0 -70.28567952729301,-33.14895757195711,0 -70.28564832359582,-33.14892496478236,0 -70.28561726466867,-33.14889430665843,0 -70.28559495667319,-33.14886426043123,0 -70.28556098912395,-33.14885069552616,0 -70.28553724393956,-33.14882945762645,0 -70.28549567605926,-33.14880476178462,0 -70.28546277149609,-33.14877976364656,0 -70.28543118470023,-33.14874568271433,0 -70.28539981450773,-33.14871399596617,0 -70.28535972011585,-33.14868282719138,0 -70.28532840460487,-33.14865221273366,0 -70.28530450452847,-33.14863097795059,0 -70.28527284608808,-33.1485979634267,0 -70.28523858137702,-33.14858348056242,0 -70.28520687504323,-33.14855043267866,0 -70.28518414439716,-33.14851974169851,0 -70.2851613263899,-33.14848858651344,0 -70.2851382730319,-33.14845593286929,0 -70.28512416168812,-33.14842499274903,0 -70.28508458848984,-33.14838127755718,0 -70.28506293475222,-33.14834103834423,0 -70.28503994102388,-33.14830969196448,0 -70.28501697220329,-33.1482787954105,0 -70.28498646542735,-33.14823826212552,0 -70.28495561152889,-33.14819582855998,0 -70.28492369561002,-33.14816413281835,0 -70.28490174305142,-33.1481231636259,0 -70.28488325628145,-33.14805297409264,0 -70.28486775955454,-33.1480318338697,0 -70.28486630596885,-33.14797561018727,0 -70.28485449280565,-33.14792659402454,0 -70.28484671232073,-33.14791594717909,0 -70.28483600816888,-33.14785685159679,0 -70.28481357013395,-33.14781369033712,0 -70.28479116600889,-33.14777109833544,0 -70.28477783606702,-33.14772996439059,0 -70.28477355210846,-33.14769022019435,0 -70.28477957312546,-33.14764227659496,0 -70.28477625694036,-33.14759140055477,0 -70.28476228343887,-33.14754640365624,0 -70.28475641800156,-33.147513536285,0 -70.2847441972003,-33.14746263016543,0 -70.28472948257834,-33.14743058306493,0 -70.28470866927391,-33.14738176145959,0 -70.28471600702851,-33.14734167420184,0 -70.28472128885595,-33.14730569303688,0 -70.2847279054463,-33.14726072216592,0 -70.28473320848258,-33.14722468100875,0 -70.28472014085489,-33.14710276713762,0 -70.28471648763112,-33.14704887521785,0 -70.2847228228832,-33.1470013164882,0 -70.28472771222383,-33.14696201327679,0 -70.28473275753736,-33.14692349923984,0 -70.28473992114456,-33.14686266312277,0 -70.28474581156624,-33.14681124296254,0 -70.28475036482699,-33.14676881354224,0 -70.28475511857741,-33.14672754869282,0 -70.28475998196318,-33.14668688787624,0 -70.28476756627967,-33.14662744149477,0 -70.28478092732475,-33.14658201386624,0 -70.28479364352633,-33.14655038279783,0 -70.28480869606494,-33.14649694502395,0 -70.28482297515853,-33.14645661501326,0 -70.28483741672254,-33.14641738805813,0 -70.28484130906584,-33.14638684218878,0 -70.28485723320723,-33.14633857389412,0 -70.28486355848577,-33.146286786756,0 -70.28488714180558,-33.14624532041035,0 -70.28491082752851,-33.14620401212843,0 -70.28492537861172,-33.14616313181816,0 -70.2849589505918,-33.14612545922933,0 -70.28499263965206,-33.14608790815306,0 -70.2850249916941,-33.14605997886156,0 -70.28504659418434,-33.14604146604137,0 -70.28509655595302,-33.14602526921394,0 -70.28513431833112,-33.14602820274541,0 -70.28517204148814,-33.1460305546971,0 -70.28518796386341,-33.14605077132092,0 -70.28522913981909,-33.14609121471289,0 -70.28526522399409,-33.1461012778479,0 -70.28528891804315,-33.14613016208139,0 -70.28532198045478,-33.14615901504366,0 -70.28532385421283,-33.14620664349356,0 -70.28531792297053,-33.14624525755048,0 -70.28532144107729,-33.14628466106502,0 -70.28531256660678,-33.14634235968823,0 -70.28531608187231,-33.14638162674187,0 -70.28531017675736,-33.14641976742027,0 -70.2853026832811,-33.14646631733692,0 -70.28529537945101,-33.14651453503315,0 -70.28529901346468,-33.14655468024088,0 -70.28531051745973,-33.14660482090619,0 -70.28531269434724,-33.14665456916428,0 -70.28532557975471,-33.14669454809018,0 -70.28532895368262,-33.14673230305769,0 -70.28533082604402,-33.14677899998967,0 -70.28533417341647,-33.14681631523869,0 -70.2853377696586,-33.14685598119009,0 -70.28534141157705,-33.14689625666394,0 -70.28534504689107,-33.14693645528368,0 -70.28536577362195,-33.14698744984103,0 -70.28537208598654,-33.14700651147026,0 -70.2853819717842,-33.14706536869988,0 -70.28538369739287,-33.14713493116641,0 -70.28539656385996,-33.14717598612692,0 -70.2854093952371,-33.14721649124423,0 -70.2854313098926,-33.14725661458531,0 -70.28544385621538,-33.14729466048845,0 -70.28545778998145,-33.14732278822044,0 -70.28547172467057,-33.1473510243775,0 -70.28549340264541,-33.14738931213098,0 -70.28550740931716,-33.14741868479803,0 -70.28552923737149,-33.14745914516238,0 -70.28554958855017,-33.14750923159956,0 -70.28557115934231,-33.14754737364893,0 -70.28558503448633,-33.14757585162275,0 -70.28559595931608,-33.14762322991803,0 -70.28561770682052,-33.14766413408219,0 -70.28563184096502,-33.14769657394741,0 -70.28564597743924,-33.14772911458519,0 -70.28566623539569,-33.14778053711375,0 -70.28568021208915,-33.14781183597565,0 -70.28569424846371,-33.14784318844389,0 -70.28571453956479,-33.14789557306622,0 -70.28573757081543,-33.14792795472349,0 -70.28576198047386,-33.14794887133773,0 -70.28580324087854,-33.14798192436254,0 -70.28583547678959,-33.14801689700827,0 -70.28585994891631,-33.14803932037245,0 -70.28590869483158,-33.14808286495534,0 -70.28593148978526,-33.14811349878003,0 -70.28596184498979,-33.14815429498152,0 -70.28598454788145,-33.14818397419402,0 -70.28600435451146,-33.14823660805378,0 -70.28603625700403,-33.14827065440132,0 -70.28604093272642,-33.14830092819781,0 -70.28608161285798,-33.14833235719525,0 -70.28612397164935,-33.14835604434013,0 -70.28615876323478,-33.14836924749879,0 -70.2862011544095,-33.14839443705554,0 -70.28622844719403,-33.14839656103243,0 -70.28626327135177,-33.14840930836254,0 -70.2863071865622,-33.1484228175362,0 -70.28634039052426,-33.14844552191574,0 -70.28638269412896,-33.1484683849238,0 -70.2864175178868,-33.14848235688019,0 -70.28645979073268,-33.14850716277591,0 -70.28649456811898,-33.14852115700585,0 -70.28656415470034,-33.14854805778987,0 -70.28660061141386,-33.14855399024906,0 -70.28666503479846,-33.14861065425139,0 -70.2866980461575,-33.14863450633904,0 -70.28673104341907,-33.14865745321085,0 -70.28675488812533,-33.14867981714151,0 -70.28679865012268,-33.14869555990096,0 -70.28683330412987,-33.14870999609692,0 -70.28689526320755,-33.14872839520584,0 -70.28694812586457,-33.14874505688872,0 -70.28699188457908,-33.14876028545314,0 -70.28703743037003,-33.14876641191935,0 -70.287099402709,-33.14878503973404,0 -70.2871631725256,-33.14879360258297,0 -70.28725071276864,-33.14882358256477,0 -70.28728714767414,-33.14882910528374,0 -70.28731983714077,-33.14885310182535,0 -70.2873471247877,-33.14885762595245,0 -70.28739984323282,-33.14887555469952,0 -70.28747261209219,-33.14888750924679,0 -70.28751619955933,-33.14890395956832,0 -70.28755072901289,-33.14891889779173,0 -70.28757797907996,-33.14892316193335,0 -70.28760338294001,-33.14893623737537,0 -70.28763787638179,-33.14895074409305,0 -70.28770157484566,-33.14896078326337,0 -70.28777483328444,-33.148969044691,0 -70.28785747992524,-33.14897785308762,0 -70.28788507368854,-33.14897976535004,0 -70.28795149910927,-33.14897688713293,0 -70.28798289640805,-33.1489633191044,0 -70.28805873790772,-33.1489611331214,0 -70.28814596238307,-33.14895113298335,0 -70.28821676186908,-33.14893150891778,0 -70.28826178942859,-33.14890111532253,0 -70.28830502149427,-33.14887853612908,0 -70.28833702389603,-33.14886354512714,0 -70.28839917364002,-33.14884175558588,0 -70.28844076866064,-33.14882682070262,0 -70.28848243587964,-33.14881194288455,0 -70.28853372762349,-33.1487969969772,0 -70.28857345831364,-33.1487902960911,0 -70.28861509248809,-33.14877642632961,0 -70.2886492708529,-33.14875410374275,0 -70.28869078943843,-33.14874114032285,0 -70.28873445338523,-33.14871959541225,0 -70.2887763288648,-33.14870553337573,0 -70.28882037989429,-33.1486828840337,0 -70.2888646556529,-33.14865961578226,0 -70.28890921125421,-33.1486353891147,0 -70.2889444498813,-33.14861021645261,0 -70.2889797685739,-33.14858484501568,0 -70.2890151548964,-33.14855942345103,0 -70.2900652059775,-33.14781896200767,0 -70.29095558837183,-33.14783436634573,0 -70.29167173775072,-33.14815758690155,0 -70.29337244428837,-33.14900880306158,0 -70.29395505630451,-33.1497045336947,0 -70.2941292660215,-33.15067434748583,0 -70.29406584954911,-33.15165256711065,0 -70.2939357284604,-33.15267289733644,0 -70.29511057782673,-33.15307150493832,0 -70.29525038867679,-33.1538008556907,0 -70.29615451283466,-33.15440563318174,0 -70.2968099805786,-33.15447020609221,0 -70.30835784314677,-33.14910423511512,0 -70.30861970864331,-33.14879338742818,0 -70.30825377860356,-33.14806545474545,0 -70.30796857375842,-33.14684408625036,0 -70.30773741940963,-33.14624610991211,0 -70.30703960208064,-33.14532802074125,0 -70.30696561489407,-33.14467209288755,0 -70.30735008891176,-33.14397364317816,0 -70.30771920132585,-33.14375781905687,0 -70.30829935045995,-33.14377560121689,0 -70.30894287354387,-33.14433939054031,0 -70.3096708155016,-33.14529631170074,0 -70.31060272866885,-33.14697366032539,0 -70.31250527378874,-33.14827880518986,0 -70.31328158489946,-33.14904698679955,0 -70.31405174867143,-33.15033974011544,0 -70.31515609043288,-33.15141029182846,0 -70.31793222569929,-33.15273661634958,0 -70.31866620801689,-33.1532664629374,0 -70.32012074377276,-33.15520353520386,0 -70.32119295244389,-33.15686287112342,0 -70.32226224055661,-33.15849655273125,0 -70.32359561963894,-33.15975376801833,0 -70.32576615293425,-33.16248787625406,0 -70.32669962845277,-33.16295416773725,0 -70.32817475174424,-33.16244112257942,0 -70.32967656724547,-33.16021208640201,0 -70.33007701712818,-33.15948044908497,0 -70.33181404210474,-33.15820887322775,0 -70.33220105761738,-33.15810940271773,0 -70.33255475023647,-33.15839045907359,0 -70.33262848903284,-33.15956345041266,0 -70.33245729497226,-33.16023811266707,0 -70.3316925555811,-33.1614507943684,0 -70.33147581434918,-33.16260647194862,0 -70.33173703781843,-33.16445017971424,0 -70.33187162891493,-33.16494128271707,0 -70.33361805145809,-33.16594496625665,0 -70.3343233398185,-33.16655601045154,0 -70.33555555732599,-33.16712237428034,0 -70.33683504346475,-33.16845339348546,0 -70.33768886166096,-33.16950156021414,0 -70.33843715969863,-33.17091662863957,0 -70.33855224739629,-33.17168661354918,0 -70.33842451629818,-33.17217661353757,0 -70.33760407404536,-33.17335809607317,0 -70.337277583518,-33.17390640990207,0 -70.33702737814211,-33.17449249539109,0 -70.3363845892512,-33.17527274244507,0 -70.33647728583412,-33.17553409350044,0 -70.33694266457582,-33.1756485119003,0 -70.33719064780865,-33.17588316178603,0 -70.33729308499771,-33.17631875862422,0 -70.33729345629574,-33.1775492413855,0 -70.33777052882273,-33.17904582635852,0 -70.33785973712222,-33.17987918078914,0 -70.33764682628775,-33.18138457725826,0 -70.3374042147361,-33.18205895549477,0 -70.3375795183937,-33.18455186903474,0 -70.33780272457786,-33.18530650853793,0 -70.33838548968507,-33.18632083827953,0 -70.33828147978581,-33.18690379159825,0 -70.33844024592156,-33.1889301686255,0 -70.33898548673177,-33.19101073494013,0 -70.33920003038514,-33.19147629057198,0 -70.33953934262136,-33.19276882291331,0 -70.3393217566454,-33.19372011094823,0 -70.33894440604389,-33.1942350816793,0 -70.33897570196072,-33.19575590853839,0 -70.33903519064283,-33.19695817412459,0 -70.33863922268404,-33.19886120627825,0 -70.33813846809085,-33.20000632776708,0 -70.33801013175992,-33.20079457607143,0 -70.3384556397437,-33.20188743632817,0 -70.33864808301821,-33.20424582458134,0 -70.3388790713977,-33.20636899252993,0 -70.33933973630526,-33.20804312304821,0 -70.33980055031439,-33.20963084160984,0 -70.33996203824867,-33.21122893284054,0 -70.33894681908976,-33.21205094239956,0 -70.33847712904891,-33.21238220971038,0 -70.33853156436359,-33.21255037585571,0 -70.33894620925541,-33.21257311312016,0 -70.34011507049699,-33.21264937764919,0 -70.34104468817,-33.2130942409513,0 -70.34128901804506,-33.21362625899852,0 -70.34134841682692,-33.21425780012969,0 -70.34153290550283,-33.21493935155911,0 -70.34142811827034,-33.21551189800527,0 -70.34100307103365,-33.21642569261438,0 -70.34044853461849,-33.21762149016988,0 -70.34015100808621,-33.21812012201468,0 -70.34015022570557,-33.21861082013762,0 -70.34028851693378,-33.22007664637994,0 -70.34040760340136,-33.22060681682537,0 -70.34107447864889,-33.22175379887645,0 -70.34155643567333,-33.22260462058799,0 -70.34182192762957,-33.2232707029068,0 -70.34180603586888,-33.22378380979421,0 -70.34204502567033,-33.22434503640363,0 -70.3425322078684,-33.22482339858309,0 -70.34312675163923,-33.22565241566947,0 -70.34314087517043,-33.22581535090101,0 -70.34290000716003,-33.22598706472704,0 -70.34242620003701,-33.2263553589297,0 -70.34149584994265,-33.22753429251091,0 -70.34089687079975,-33.22805221380553,0 -70.34110563401606,-33.22839778204509,0 -70.34163389031609,-33.22843616252923,0 -70.34245369610859,-33.2282497767937,0 -70.34260105607495,-33.22772617243436,0 -70.34275608457862,-33.22728129394648,0 -70.34397318143144,-33.22666620601773,0 -70.34421127402351,-33.22677096145041,0 -70.34413058760958,-33.22692689718536,0 -70.3436128164962,-33.22732437990039,0 -70.3437003209326,-33.22746688537286,0 -70.34418545327617,-33.22753811155383,0 -70.34499966279887,-33.2284219708809,0 -70.34564862619385,-33.22931514067604,0 -70.34603595610196,-33.22962502750124,0 -70.3461909268763,-33.23002975191849,0 -70.3456276076935,-33.23150215432384,0 -70.34545315213741,-33.23250641224878,0 -70.34532690872096,-33.23376034979891,0 -70.34496710652091,-33.23459086138971,0 -70.34493859130274,-33.23537325234624,0 -70.34449954334887,-33.23697326552266,0 -70.34394002443437,-33.23759328843269,0 -70.34338130499488,-33.23841493376217,0 -70.34327133983972,-33.23981387142821,0 -70.34395552838608,-33.24115601457015,0 -70.34583444098703,-33.24311204318375,0 -70.34645583306501,-33.24414632451768,0 -70.3466067744675,-33.24466657754743,0 -70.34652665688384,-33.24517556320594,0 -70.34601085188038,-33.24607085670383,0 -70.34595410142455,-33.24785309131516,0 -70.34525325070688,-33.24937046195854,0 -70.34475186492419,-33.25010312586244,0 -70.34468509295462,-33.2510450007871,0 -70.34486403059969,-33.25141604445594,0 -70.34503740708455,-33.25159041595884,0 -70.34535392448686,-33.25279826583947,0 -70.3451186950564,-33.25329381766704,0 -70.34488965223048,-33.25376326418198,0 -70.34506891841325,-33.25457142960409,0 -70.34535129449712,-33.25509274366186,0 -70.34541934661112,-33.25589773448608,0 -70.3458579078503,-33.2565997840469,0 -70.34598558674003,-33.25805331768024,0 -70.34653313250496,-33.25870737726434,0 -70.34757655300039,-33.25912996496349,0 -70.3487155303276,-33.26010939296857,0 -70.34969095893557,-33.26217083634812,0 -70.34987452842478,-33.262974847942,0 -70.35000528770438,-33.26343479539952,0 -70.35030076066617,-33.26446632405872,0 -70.35021455494811,-33.2651776525389,0 -70.35097499970669,-33.26604951674789,0 -70.35136525958559,-33.26695709319885,0 -70.35117949697495,-33.26860144260729,0 -70.35133612760758,-33.26917640675514,0 -70.3513115823622,-33.26975237462315,0 -70.35164686117466,-33.27034825135805,0 -70.35161377130812,-33.27110103601062,0 -70.35121513315427,-33.27189202970774,0 -70.35156143137262,-33.27366265479698,0 -70.35189423988241,-33.27412886835167,0 -70.35245476839695,-33.2745364298537,0 -70.35277486326372,-33.27513091148557,0 -70.35262040871973,-33.27568145902605,0 -70.35216545953374,-33.27620814228109,0 -70.35084591188553,-33.27676877054376,0 -70.35094603896411,-33.27746031818356,0 -70.35133229134027,-33.2791027325979,0 -70.35132082657931,-33.2814883658701,0 -70.35135918356262,-33.28218925041921,0 -70.35196182739217,-33.28370512418282,0 -70.35314084087689,-33.28510923192744,0 -70.35409734058389,-33.28735517268596,0 -70.35421633675821,-33.28817648565327,0 -70.35451369295333,-33.28842446007879,0 -70.3545226989004,-33.28959330736599,0 -70.3542335421923,-33.29117361214801,0 -70.35456131020541,-33.29334779725297,0 -70.35597982535221,-33.29541763629632,0 -70.35610395845907,-33.2957578302313,0 -70.35580495208596,-33.29693600301873,0 -70.35554592891367,-33.29770336151136,0 -70.35621007151639,-33.29845673629156,0 -70.35633743512825,-33.29890147506062,0 -70.35704739043065,-33.29954158895845,0 -70.35764608453282,-33.29979703740624,0 -70.35818382419374,-33.30090636048502,0 -70.35840184551425,-33.30185022435374,0 -70.35859902079085,-33.30218480643263,0 -70.35854037425122,-33.30276347790434,0 -70.35894095626065,-33.30338543508229,0 -70.35887208870723,-33.3046285898059,0 -70.35797123518182,-33.3059823288388,0 -70.35801040582564,-33.30627705419013,0 -70.35788518803913,-33.30668213947106,0 -70.35693152749946,-33.30784131671044,0 -70.35719668156065,-33.30893307313004,0 -70.35751750124442,-33.30956235133463,0 -70.35771927425759,-33.31041709544109,0 -70.35763459165588,-33.31136543000981,0 -70.35755417491627,-33.31200572826807,0 -70.35807236126919,-33.31244064956299,0 -70.35824338991343,-33.31291378593542,0 -70.35854607263772,-33.31317979850257,0 -70.35869448115508,-33.31387282937649,0 -70.35954070552226,-33.31470332797371,0 -70.35963780973633,-33.31574800703575,0 -70.36035307434024,-33.316716729714,0 -70.36101537423978,-33.31830972822271,0 -70.36119355457454,-33.31901446912411,0 -70.36106572249177,-33.31949488276943,0 -70.3614588297287,-33.32031709854551,0 -70.36134419033958,-33.32146202445322,0 -70.36099027319251,-33.32176671258536,0 -70.36103029949068,-33.32221843437987,0 -70.36115217886373,-33.32291931522525,0 -70.36100707629274,-33.3234442654272,0 -70.36130667537465,-33.32421033577455,0 -70.36143900497576,-33.32576199078331,0 -70.36202467299563,-33.32649309471977,0 -70.36193157147883,-33.32678580280971,0 -70.36161380018949,-33.32707141895396,0 -70.36124527216906,-33.32791801094503,0 -70.36132465018883,-33.32826195729232,0 -70.3618475142146,-33.32889156365782,0 -70.36232859706415,-33.32911301123425,0 -70.36238463836841,-33.32935390321285,0 -70.36154830615769,-33.3296808353939,0 -70.36167515028536,-33.33016930400399,0 -70.36161092873679,-33.3316291222021,0 -70.36256592595834,-33.33248187786359,0 -70.36296062615256,-33.3325269133321,0 -70.36307983003898,-33.3328129898971,0 -70.36372177314558,-33.33289773840386,0 -70.36444273629388,-33.33338743257389,0 -70.36454099535105,-33.33360957361316,0 -70.3642390986994,-33.3342222569597,0 -70.3645657924708,-33.33497957002516,0 -70.3648103481865,-33.33624397806189,0 -70.3648005729586,-33.33650059885454,0 -70.36454344849679,-33.33742078208937,0 -70.36470693238856,-33.3380652136605,0 -70.36503039450332,-33.33875113554492,0 -70.36501400758405,-33.33919397986155,0 -70.36484585295534,-33.33936306659058,0 -70.36440586281859,-33.33950980875679,0 -70.36421508312731,-33.33982552259282,0 -70.36411207278762,-33.34001735299391,0 -70.36397960439785,-33.34101602969454,0 -70.36375408922075,-33.34156539344541,0 -70.36386552187425,-33.34219417108165,0 -70.36398195531874,-33.3429741082284,0 -70.36404165506737,-33.34361841565364,0 -70.36444421552901,-33.3440278550329,0 -70.36441305141469,-33.3444332599269,0 -70.36394693843532,-33.34497056980236,0 -70.36389040768165,-33.34567578509818,0 -70.36391715067556,-33.34624202455271,0 -70.36386051237989,-33.34667732986466,0 -70.3643672557872,-33.34737412038822,0 -70.36428475735083,-33.34887906636154,0 -70.36444088952655,-33.34922227273435,0 -70.36478327943168,-33.34960452163388,0 -70.36503611673481,-33.35014201669605,0 -70.36568304201441,-33.35102364100419,0 -70.36611361701247,-33.35167860961212,0 -70.36671280201588,-33.35208965283042,0 -70.36687327695785,-33.35259947563038,0 -70.36708335409701,-33.35277853070577,0 -70.3673328229473,-33.35332653988476,0 -70.36862612365489,-33.354063200879,0 -70.36946744721416,-33.35472593973451,0 -70.37007944654256,-33.35568413849717,0 -70.37032052869215,-33.35620703212437,0 -70.37077667919749,-33.35633512949909,0 -70.37153621657666,-33.3561359733831,0 -70.37223541151826,-33.35612423632603,0 -70.37285784211672,-33.3566210957914,0 -70.3744582120456,-33.35758017077862,0 -70.37505370663395,-33.3576428290616,0 -70.37562434281507,-33.35794505806914,0 -70.37687570657002,-33.35876152815047,0 -70.37799494601718,-33.35941915762135,0 -70.37832739160868,-33.36006822314566,0 -70.37848900714718,-33.36037281098727,0 -70.38062284477128,-33.36123311849315,0 -70.38122864958608,-33.36142403622183,0 -70.38276338914467,-33.36243394960931,0 -70.38333742331886,-33.36303224895563,0 -70.38455380689329,-33.36321633234299,0 -70.38519832579456,-33.36345226592902,0 -70.38633205644096,-33.36414735368968,0 -70.38679072977494,-33.36431839839031,0 -70.38808829541257,-33.36441907920295,0 -70.3900542227645,-33.36514431319665,0 -70.39277993099134,-33.36562100523273,0 -70.39348026308113,-33.36590781582079,0 -70.39447099960493,-33.36586388725453,0 -70.39501388667222,-33.36614206463396,0 -70.39696427217912,-33.36796791413737,0 -70.39797307368168,-33.36903809444829,0 -70.3989138235636,-33.37016247871072,0 -70.39926650259704,-33.37067921033476,0 -70.39959516505235,-33.37126885105874,0 -70.40000268330709,-33.37157289668442,0 -70.40078901738676,-33.37169365228439,0 -70.40161212771501,-33.37198833476989,0 -70.4029505529071,-33.3726109263182,0 -70.40332889111184,-33.37267761773649,0 -70.40462164780224,-33.37231557179096,0 -70.40676926802684,-33.3720443196453,0 -70.40824991754924,-33.37146928041998,0 -70.40891134314857,-33.37099805191706,0 -70.40918094356137,-33.37049488215803,0 -70.40992132520665,-33.36991761917287,0 -70.41084754438785,-33.36959422313207,0 -70.41142750948902,-33.36933578873709,0 -70.41224340217465,-33.36942842097577,0 -70.41447173779621,-33.36905847955219,0 -70.41525583908819,-33.36906679684386,0 -70.41585668992121,-33.36883265253823,0 -70.41685524852136,-33.36820834449028,0 -70.41718273093799,-33.36816773253682,0 -70.41782004737158,-33.36832661477195,0 -70.4188652008466,-33.36839717817481,0 -70.41921527321995,-33.36847736921715,0 -70.41991481670379,-33.36905616472735,0 -70.42021640855344,-33.36916382521906,0 -70.42107033704818,-33.36887669215465,0 -70.42132766833673,-33.36823472348301,0 -70.42155518286255,-33.36809168486087,0 -70.42264375143738,-33.36795777979616,0 -70.42288287831309,-33.36778729498056,0 -70.42278749390431,-33.36714718723969,0 -70.42277270671858,-33.36667884867236,0 -70.42307215345353,-33.36644507100087,0 -70.42347193172658,-33.36654700767097,0 -70.4240116433362,-33.36713121799612,0 -70.42447663141687,-33.36757061405603,0 -70.42517925296254,-33.36778060699862,0 -70.42558825388268,-33.36838668230006,0 -70.42586600782354,-33.36858418700694,0 -70.42653170275976,-33.36844755044434,0 -70.42693183194439,-33.36848303494145,0 -70.42767409844171,-33.3687527286375,0 -70.42796974627018,-33.36879957947956,0 -70.42861077378645,-33.36873652664151,0 -70.4289469181841,-33.36889402161016,0 -70.42903330461456,-33.36912240246592,0 -70.42891812604765,-33.36949007206194,0 -70.42888506145725,-33.36977557791744,0 -70.4290826073875,-33.37020939302166,0 -70.4294052123248,-33.37045408232134,0 -70.43021372633547,-33.37055524351413,0 -70.43128335396989,-33.37081376953859,0 -70.43182423416944,-33.37033395015195,0 -70.43259061541856,-33.36992370067608,0 -70.43305002775534,-33.36994335205824,0 -70.4337412874934,-33.37022119324327,0 -70.43445208519253,-33.37028166387037,0 -70.43536685936898,-33.37020692742278,0 -70.43662491886975,-33.36968254220245,0 -70.43693086567883,-33.36968772041576,0 -70.43815577610539,-33.37023674994148,0 -70.43831579369589,-33.37037688223763,0 -70.43934306555362,-33.37051015948921,0 -70.43983104434888,-33.37073879220901,0 -70.44058193508108,-33.37111375119491,0 -70.44124208667253,-33.37120992969556,0 -70.44185482806455,-33.37160978747019,0 -70.44227320082845,-33.37160023102051,0 -70.44257190421126,-33.37130903153047,0 -70.44295486620884,-33.37062260772328,0 -70.44341337290281,-33.37026975903998,0 -70.44387181476866,-33.37028276480882,0 -70.44437737482497,-33.37050696571264,0 -70.4448147231745,-33.37056891424452,0 -70.44545179384993,-33.37043095102231,0 -70.44586805948222,-33.37043191665131,0 -70.44704452898858,-33.37075104563078,0 -70.44828038011663,-33.37073393225861,0 -70.44937595553783,-33.37070899387603,0 -70.45027741445779,-33.37105570537295,0 -70.45096478078135,-33.37111823315429,0 -70.45309785784332,-33.37092838404435,0 -70.45386147958305,-33.37103490989484,0 -70.45470705063744,-33.37098685858631,0 -70.45562129083925,-33.37038316971138,0 -70.45589550337687,-33.37029267687321,0 -70.45685457929477,-33.3704773493824,0 -70.45757072795165,-33.37050504637006,0 -70.45796906998179,-33.37087949881508,0 -70.45817596350216,-33.37101801430101,0 -70.45848995832263,-33.37099922125881,0 -70.45869978758977,-33.37080311211992,0 -70.4591350343847,-33.37061574784985,0 -70.45947015618198,-33.3704511779113,0 -70.45970231197182,-33.37013088812076,0 -70.46103630735152,-33.36972351637354,0 -70.4614794406488,-33.36990415943272,0 -70.46262410851752,-33.37042191455244,0 -70.46316656670854,-33.37049493164934,0 -70.46377700070525,-33.37039534371141,0 -70.46555220423825,-33.3706216567879,0 -70.46601678431287,-33.37052122599198,0 -70.46614443800031,-33.37026089651098,0 -70.46588270219752,-33.36980540005261,0 -70.46583774828967,-33.36942999409072,0 -70.46663438010343,-33.36809863867729,0 -70.46724813164279,-33.3677445412274,0 -70.46760422968318,-33.36722416211812,0 -70.46761855633807,-33.36671594227926,0 -70.46757694864017,-33.36640703352796,0 -70.46745651772022,-33.36616295087577,0 -70.46740175500244,-33.36548532629552,0 -70.46744367931646,-33.36507458429848,0 -70.46773033557608,-33.36487254850546,0 -70.4693863010184,-33.36500925033842,0 -70.47011769442712,-33.3649325194525,0 -70.47149579852754,-33.36469803178716,0 -70.47178656715298,-33.36449683595283,0 -70.47220277502447,-33.3637035147554,0 -70.47249071096496,-33.36350024033377,0 -70.4727310311182,-33.36352713079849,0 -70.47329523377316,-33.36369285883887,0 -70.47382672595687,-33.3636331811118,0 -70.47472139568215,-33.36413533403707,0 -70.47516250034248,-33.36426880541367,0 -70.47647875196802,-33.36410385163973,0 -70.47754193672017,-33.36434631296066,0 -70.47940107363297,-33.36433415251093,0 -70.48054951799803,-33.36418496153266,0 -70.48130439322965,-33.36437653333142,0 -70.48189022404976,-33.36443741505354,0 -70.48250256473682,-33.36480085878286,0 -70.48293872123436,-33.36493148467679,0 -70.48350236386213,-33.36479522213003,0 -70.48413016335563,-33.36434949152232,0 -70.48465948743195,-33.36429642309071,0 -70.48565037692292,-33.3645536419848,0 -70.48842070008536,-33.3647023034622,0 -70.48954585580856,-33.36452795701693,0 -70.49138532442188,-33.36445644347472,0 -70.49200049103925,-33.36457805269914,0 -70.49292478641128,-33.36464800368987,0 -70.49333390453322,-33.36503339839363,0 -70.49390152989734,-33.36538632651207,0 -70.49443357031713,-33.36597139333723,0 -70.49500409078503,-33.36653530227989,0 -70.49523780364346,-33.36672973224848,0 -70.49542507316816,-33.36688298537798,0 -70.49628413512649,-33.36698762872304,0 -70.49665802642926,-33.36696014612355,0 
					</coordinates>
				</LineString>
			</Placemark>
			<Placemark id="099AC8BB2633363BE73F">
				<name>Ruta Mineroducto</name>
				<LookAt>
					<longitude>-70.33421147034201</longitude>
					<latitude>-33.1508914108015</latitude>
					<altitude>3069.073300050502</altitude>
					<heading>0.5891144048479943</heading>
					<tilt>0</tilt>
					<range>3545.985797883477</range>
					<altitudeMode>absolute</altitudeMode>
					<gx:fovy>35.00010218633699</gx:fovy>
				</LookAt>
				<styleUrl>#__managed_style_301C8CB4F33D3D1AF221</styleUrl>
				<LineString>
					<coordinates>
						-70.64238783600041,-33.176583411805,0 -70.6386132865746,-33.17635260302125,0 -70.63402367995606,-33.1761039263546,0 -70.63327637954625,-33.17630418264688,0 -70.63249496797164,-33.17712010964498,0 -70.63173297876963,-33.17760824826851,0 -70.63070904414371,-33.17856017906669,0 -70.62975579219835,-33.18008506594898,0 -70.62970533049847,-33.18037338330694,0 -70.62990676384945,-33.18111053582015,0 -70.62942076085984,-33.18178385108212,0 -70.62831661187586,-33.18273091471718,0 -70.62757062884695,-33.18305977669942,0 -70.62601808102966,-33.18335988132998,0 -70.62469776745827,-33.18393910137762,0 -70.62289946200167,-33.18491226695898,0 -70.62160425251712,-33.18587668905926,0 -70.62099974099708,-33.18602179848924,0 -70.61933613738512,-33.18601369226758,0 -70.61824685778582,-33.1860855461686,0 -70.61712047285394,-33.18636984636396,0 -70.61646231098931,-33.18673447611859,0 -70.61608373166804,-33.18682029648498,0 -70.61496129604133,-33.18686717479181,0 -70.61441882455978,-33.18690317505256,0 -70.61357886056432,-33.18674545626259,0 -70.61318624912201,-33.18678707120927,0 -70.61301605138115,-33.18701993004822,0 -70.61285834839191,-33.18753856815825,0 -70.61264351513603,-33.18790171970834,0 -70.6120243376582,-33.18855513337945,0 -70.61089265498049,-33.1893184962898,0 -70.60991492667982,-33.18989931327562,0 -70.60862975644079,-33.19021327718034,0 -70.60773307182261,-33.1902493133633,0 -70.60723449095404,-33.19006397650209,0 -70.60698878313853,-33.18991253564516,0 -70.60670722866951,-33.18987737628069,0 -70.6064927916086,-33.18994150252442,0 -70.60632147906905,-33.19017331806563,0 -70.60629691704357,-33.19038210447469,0 -70.6063966152513,-33.19065062281646,0 -70.60641373030982,-33.19098601358474,0 -70.60628880903859,-33.19135208066596,0 -70.6062374786318,-33.19148118484289,0 -70.6056941451783,-33.19206676978807,0 -70.60539281464554,-33.19229923118036,0 -70.60516870827672,-33.19237802385513,0 -70.60452814886476,-33.19239048996922,0 -70.60427098064882,-33.19244078731583,0 -70.60420115203428,-33.19271934740957,0 -70.60406493157188,-33.19295345869435,0 -70.60349298957712,-33.19321863642439,0 -70.60304180996727,-33.19354790670751,0 -70.60282418456858,-33.1936531008965,0 -70.60137524481615,-33.19401277255982,0 -70.60105019679081,-33.19452727341503,0 -70.60022119609629,-33.19482010681072,0 -70.59951871074355,-33.19528884964424,0 -70.59900378038461,-33.19536250458776,0 -70.5981370430477,-33.19524749064448,0 -70.59750424976941,-33.19513521612424,0 -70.59731862101809,-33.19518329083027,0 -70.59715871997564,-33.19557343711895,0 -70.59695635097296,-33.19576429128336,0 -70.59662287951214,-33.19589652910595,0 -70.59652803317671,-33.19619420077169,0 -70.59644120545109,-33.19634974136557,0 -70.59536641903036,-33.19723452958,0 -70.59464018206866,-33.19766500465936,0 -70.59398521735737,-33.19783377503523,0 -70.59278551074526,-33.19837110852731,0 -70.59162795497843,-33.19867925726717,0 -70.5900940791464,-33.19919466949059,0 -70.58965461138007,-33.19989871775963,0 -70.58938627499469,-33.20028315174731,0 -70.58844543807403,-33.20129185501764,0 -70.5873344558704,-33.20186458296379,0 -70.58629371765895,-33.2017978396301,0 -70.58525349786818,-33.20130932006356,0 -70.58366980158222,-33.20085491745512,0 -70.58312375602732,-33.20083761351929,0 -70.58262200402875,-33.20105767627141,0 -70.58248641434415,-33.20121362316802,0 -70.58213938082977,-33.20144056751218,0 -70.5814065376352,-33.20164063366776,0 -70.58094611474962,-33.20191583829126,0 -70.580601414851,-33.20212657654248,0 -70.57982263544886,-33.20233299266014,0 -70.57938500334801,-33.20256723628074,0 -70.57815483217757,-33.20332994150494,0 -70.57711931055016,-33.20362911405869,0 -70.57631669868898,-33.20390745275936,0 -70.57590928839701,-33.20421308650749,0 -70.57539416233703,-33.20422358031514,0 -70.57494362588015,-33.20446457529064,0 -70.57442863525905,-33.20461490659626,0 -70.57376368990326,-33.20442443176838,0 -70.57342702262146,-33.20428890579966,0 -70.57299462403923,-33.2044574056786,0 -70.57308327853745,-33.20489907927681,0 -70.57305453214447,-33.20506484583558,0 -70.57278612564252,-33.20511368450574,0 -70.57201105796361,-33.20500805893356,0 -70.57170256276486,-33.2047965125843,0 -70.57168907031286,-33.20447245435604,0 -70.57174698152471,-33.20419372364381,0 -70.57190910619099,-33.20379451721359,0 -70.57238276612388,-33.20326782819003,0 -70.57245516749262,-33.20298086589787,0 -70.57227857213446,-33.20273065921022,0 -70.57236707617285,-33.20228600569343,0 -70.57231888137699,-33.20205952644234,0 -70.57207355484111,-33.20199169522606,0 -70.57161890517726,-33.20205149100259,0 -70.57126786163036,-33.20198928597735,0 -70.570982082835,-33.20181321556316,0 -70.57078441726888,-33.20176239198499,0 -70.57036978450337,-33.20188744675676,0 -70.57010563593109,-33.20211492623196,0 -70.56998647967586,-33.2023597235312,0 -70.56981659829123,-33.20246912347405,0 -70.56977563173008,-33.20274823542541,0 -70.56956322896686,-33.20313493608329,0 -70.56933886086199,-33.20354753605798,0 -70.56920544932673,-33.20388667173411,0 -70.56880322520446,-33.20428468170131,0 -70.5685083654374,-33.20451374795169,0 -70.56824370176867,-33.20468857008223,0 -70.56790367481193,-33.20465521077078,0 -70.56794891136371,-33.20437497639982,0 -70.56809705841256,-33.20374901716628,0 -70.56805267960267,-33.20335971509793,0 -70.56770694582431,-33.20319813465591,0 -70.56760750584422,-33.20297097754519,0 -70.56765122457371,-33.20291723628122,0 -70.5678915946327,-33.20291680054735,0 -70.56817715414628,-33.20287831184233,0 -70.56837015013173,-33.20274434763438,0 -70.56854423106306,-33.2017329078752,0 -70.5687695878987,-33.20114755559298,0 -70.56960668479525,-33.20035182838709,0 -70.57057547018226,-33.19988267344072,0 -70.57153274303695,-33.19959929041087,0 -70.57191493573661,-33.19953360972963,0 -70.57204753072234,-33.19899494253145,0 -70.57225800963678,-33.19831523045279,0 -70.57233591670415,-33.19807128463194,0 -70.57222773033291,-33.19781823018705,0 -70.57121024764858,-33.19764291275075,0 -70.56894329952451,-33.19637709370851,0 -70.56821597361493,-33.19590486608713,0 -70.56930903914295,-33.19557246331186,0 -70.56943385584525,-33.19493288367562,0 -70.5677544604516,-33.19444753226716,0 -70.56789111208154,-33.19391382035806,0 -70.56855828501492,-33.19345450462591,0 -70.56843034036534,-33.19318231526595,0 -70.56780254149987,-33.19302408454772,0 -70.56722092627987,-33.19323509875016,0 -70.56679466800057,-33.19316160335703,0 -70.56639883700029,-33.19267842190398,0 -70.56605989507929,-33.19232567932296,0 -70.56564467996603,-33.19228988518156,0 -70.56510035521836,-33.19252795102974,0 -70.56437564548089,-33.1926410596632,0 -70.56408178624079,-33.19312786781851,0 -70.56373051968957,-33.19344802235264,0 -70.56329025968107,-33.19350768699122,0 -70.56249857640719,-33.19360295466128,0 -70.56203519988649,-33.19394503699277,0 -70.56178872449122,-33.19377009664402,0 -70.56178916684718,-33.19296996705042,0 -70.56168208017601,-33.19280400247943,0 -70.56122321929989,-33.19283806969032,0 -70.56082718149338,-33.19266774278967,0 -70.56041382695389,-33.19261068769622,0 -70.55967791884053,-33.19275065676041,0 -70.55817611420707,-33.19388646447002,0 -70.55798138960378,-33.1942298865219,0 -70.55789874098322,-33.19474804922814,0 -70.55764233400805,-33.19487967912259,0 -70.55731703131583,-33.19495886683257,0 -70.55711403735661,-33.19481425256335,0 -70.55711794324152,-33.19457238458669,0 -70.55694850265419,-33.19434953338677,0 -70.55675706654252,-33.19415109568743,0 -70.55677219008314,-33.19365940906726,0 -70.55674959712827,-33.19306297854506,0 -70.55654458650676,-33.19299114647156,0 -70.55642079111107,-33.19306823027536,0 -70.55634019937239,-33.19350206708121,0 -70.55627892253327,-33.1936610613139,0 -70.55613077972555,-33.19338039071518,0 -70.55588092534133,-33.19312632117514,0 -70.5557666313986,-33.1929929316593,0 -70.55595890320008,-33.19264558052987,0 -70.55663857740633,-33.19228874139498,0 -70.55688549771446,-33.19197113547435,0 -70.55755386609268,-33.19121531250327,0 -70.5576518265686,-33.19099111987192,0 -70.5582304432625,-33.1904579546319,0 -70.55853637081778,-33.19026279673145,0 -70.55901268732997,-33.19002456082669,0 -70.55927207171679,-33.18961684243557,0 -70.55917445911388,-33.18950522579631,0 -70.55885238344824,-33.18951747578321,0 -70.55830936031253,-33.18973100841372,0 -70.55768158019696,-33.18981371080622,0 -70.55691017323016,-33.19025084270012,0 -70.55623848694798,-33.19042869065514,0 -70.55538039890439,-33.19110769217893,0 -70.55477719234435,-33.19144152364996,0 -70.55430879660697,-33.19207362714013,0 -70.5539931976022,-33.19212080563033,0 -70.55359513873924,-33.19199808878495,0 -70.55347209181603,-33.19152655283956,0 -70.55335408798356,-33.1912136610075,0 -70.55308763992643,-33.19120606968023,0 -70.55250599082648,-33.19134705916437,0 -70.55221946592211,-33.19147656809371,0 -70.55177832402853,-33.19134406533786,0 -70.55154445994511,-33.19107821745416,0 -70.5514064982477,-33.19096485772085,0 -70.55131769629011,-33.19106936495211,0 -70.55186892895462,-33.19186728937572,0 -70.55186245752927,-33.19210971290156,0 -70.55208412762042,-33.19238242923932,0 -70.55214226957273,-33.19257442048625,0 -70.55210577065775,-33.19290593806072,0 -70.55188834929999,-33.19324260926913,0 -70.55149003499064,-33.19352575302886,0 -70.55107379008339,-33.19361753647605,0 -70.55102436311117,-33.193538746831,0 -70.55125360352216,-33.19339450366907,0 -70.55143624739001,-33.19314485630167,0 -70.55114964959537,-33.1929545752887,0 -70.55063556703674,-33.19262517384141,0 -70.5504062982773,-33.19233296062176,0 -70.55026785656057,-33.19199818619343,0 -70.55000749117505,-33.19165937993523,0 -70.54976681812849,-33.19158461677492,0 -70.54975973921523,-33.19176025114406,0 -70.5496907507644,-33.19199976354077,0 -70.54908832961362,-33.19260936464905,0 -70.54881012870793,-33.19280611686682,0 -70.54840349616434,-33.19338902121572,0 -70.54825021285463,-33.19357247613747,0 -70.54789368486023,-33.1937393366489,0 -70.54778842052177,-33.19380427396028,0 -70.54782685180442,-33.19403712448941,0 -70.54792147538902,-33.1941888903264,0 -70.5479665866564,-33.19442902533066,0 -70.54792738255388,-33.19460488552587,0 -70.54812236288716,-33.19490822554163,0 -70.5482974425595,-33.19515157642564,0 -70.54883774510957,-33.19574637153968,0 -70.54892780701668,-33.19587107924878,0 -70.5489023641699,-33.19610777015281,0 -70.54839014920503,-33.19649901212055,0 -70.54788587670122,-33.19700955669476,0 -70.54761904199739,-33.19721206817083,0 -70.54749960137472,-33.19721658872962,0 -70.54761910745772,-33.19698328179534,0 -70.54789284205373,-33.19649731898175,0 -70.54798860308885,-33.19620751153087,0 -70.54790423062045,-33.19601417790105,0 -70.5475644035614,-33.19582224070761,0 -70.5472510767005,-33.19558175626843,0 -70.54618207609789,-33.19412690469267,0 -70.54577267402426,-33.19361976852774,0 -70.54615398428659,-33.19322191682693,0 -70.54629167353227,-33.19296821602968,0 -70.54625312039262,-33.19245665940426,0 -70.54601125035285,-33.19205175822465,0 -70.54537371835383,-33.19184608242664,0 -70.54448892573673,-33.19165742708307,0 -70.54395545083671,-33.1911301980479,0 -70.54387638394357,-33.19111379779747,0 -70.54419468897551,-33.19179834857834,0 -70.54521276204635,-33.19243243360454,0 -70.54530213455149,-33.1926612797789,0 -70.54521349061085,-33.19282786751759,0 -70.54448137684622,-33.19331829121524,0 -70.54446150232081,-33.19346065474133,0 -70.54480977011782,-33.19459940712988,0 -70.54480039431802,-33.19479765454962,0 -70.54471387187692,-33.19485703608309,0 -70.54416214784817,-33.19466601739531,0 -70.54394486188508,-33.19461486920469,0 -70.54383077216322,-33.19440504092174,0 -70.54344670674992,-33.19424252920506,0 -70.54323961415831,-33.19415622516096,0 -70.54283003884764,-33.1940128072759,0 -70.54156144675521,-33.19400658944471,0 -70.54139789540581,-33.1937399280929,0 -70.54121183172344,-33.19334748134595,0 -70.54048509882691,-33.19318346334648,0 -70.53979145583307,-33.19290693603817,0 -70.53905455603746,-33.19271243396587,0 -70.53673806698865,-33.19268018482107,0 -70.53572316144999,-33.19281534761666,0 -70.53519980193454,-33.19299443030534,0 -70.53432696304459,-33.19297369300658,0 -70.53112834169065,-33.19274334468132,0 -70.53037181406845,-33.19250403659144,0 -70.52937407968331,-33.19135552452749,0 -70.52923944048868,-33.19110481671551,0 -70.52898437879124,-33.19111348392639,0 -70.5288831099552,-33.19133010237301,0 -70.52878819523002,-33.19166018480593,0 -70.52843051253291,-33.19225852697335,0 -70.5284525644242,-33.19279725284014,0 -70.52788945138319,-33.19329672596907,0 -70.52748528411871,-33.19366500142584,0 -70.52722152963661,-33.19375524187235,0 -70.5272908776825,-33.19330868100856,0 -70.52733672246947,-33.1930579783948,0 -70.52702499680636,-33.19282470185564,0 -70.52666834823719,-33.19268246097318,0 -70.52638028758957,-33.19238726848982,0 -70.52646903142453,-33.19224758135891,0 -70.52654156042186,-33.1920448338274,0 -70.52709955618144,-33.19203892977347,0 -70.52738419192806,-33.19164217315104,0 -70.52707418174785,-33.19127789057845,0 -70.52613195415249,-33.19129684151854,0 -70.52569410204852,-33.19128482833544,0 -70.52590115596023,-33.19177362243301,0 -70.52641754473233,-33.19203322290154,0 -70.52623924707136,-33.19246525518405,0 -70.52594533748751,-33.193005229846,0 -70.52555141113503,-33.19302967181861,0 -70.5249016223058,-33.19257370407362,0 -70.52435117997966,-33.19170787512856,0 -70.5242721485329,-33.19134398408305,0 -70.52430766432698,-33.19115553880101,0 -70.52409133821244,-33.19066951198683,0 -70.52364810108119,-33.19021014146348,0 -70.52329492532927,-33.19013692124753,0 -70.52299443905875,-33.19034737745395,0 -70.52298961191836,-33.19056170661972,0 -70.52331493450156,-33.19080909163008,0 -70.52344498307535,-33.19112045589175,0 -70.52336919796198,-33.19129709613926,0 -70.52296258159818,-33.19124111927091,0 -70.52275629709558,-33.19110666721891,0 -70.52246102241605,-33.19111447846431,0 -70.52200996273443,-33.19157145263736,0 -70.52145285253152,-33.19185462754022,0 -70.52054002539249,-33.19177020737392,0 -70.52029046954296,-33.19179551939182,0 -70.51996493902314,-33.19159550144855,0 -70.51980030593656,-33.19150761997881,0 -70.51957215542065,-33.19150444361102,0 -70.51922771111484,-33.19154225584511,0 -70.51901842076728,-33.1915529440668,0 -70.51882460642517,-33.19163537748972,0 -70.5183259492984,-33.19160545934105,0 -70.51792320958477,-33.19193162382767,0 -70.51733824233844,-33.19226567265732,0 -70.51672362071641,-33.19282242406528,0 -70.51622321097578,-33.19327664958756,0 -70.51606293698804,-33.19323032329945,0 -70.51630325669606,-33.19289591253437,0 -70.51646239371344,-33.19253364784895,0 -70.51670579499645,-33.19211041750866,0 -70.51703262382813,-33.19174362736624,0 -70.51730278375295,-33.19157505481717,0 -70.51736621551743,-33.19128160039462,0 -70.51794532760108,-33.19057596378547,0 -70.51792914533971,-33.19046309644214,0 -70.51769241116696,-33.19041591886396,0 -70.51592927375661,-33.19075262094515,0 -70.51443862019502,-33.19089649527907,0 -70.51256606691011,-33.19097246127377,0 -70.50827204996892,-33.19215782557082,0 -70.50689827805746,-33.19274566379525,0 -70.50563860347472,-33.19270693164895,0 -70.50544996872902,-33.1922060377596,0 -70.50554617281861,-33.19159702601726,0 -70.50571236907359,-33.19130589630891,0 -70.50481844585632,-33.19101964490829,0 -70.50411970357339,-33.19086045166138,0 -70.50363631356075,-33.19094603846368,0 -70.5029012339149,-33.19064105878597,0 -70.5020318797618,-33.19092219509186,0 -70.50189481404561,-33.19148430936726,0 -70.50194553393401,-33.19196517441126,0 -70.50129834712688,-33.19251956955938,0 -70.50111589141913,-33.19281883709943,0 -70.50089820815121,-33.1928478801261,0 -70.50103468714764,-33.19220656890754,0 -70.50088839319771,-33.19182009277052,0 -70.50020549534077,-33.19161833565362,0 -70.50005826502664,-33.19192320583671,0 -70.49987587458119,-33.19215796673634,0 -70.49898457905925,-33.1923427176979,0 -70.4985809937828,-33.19269594904577,0 -70.49851708226828,-33.19293589975245,0 -70.49833523175339,-33.19293179414872,0 -70.49788703692062,-33.19273425945174,0 -70.49732994858762,-33.19259999038049,0 -70.49502123844438,-33.19188785999791,0 -70.49425347403502,-33.19173600228687,0 -70.4941045119122,-33.19192179586246,0 -70.49441021761028,-33.19241923709141,0 -70.49425153642326,-33.19252872947503,0 -70.4937531336318,-33.19232910398997,0 -70.49286354346737,-33.19182575723716,0 -70.49247581318311,-33.19179173966462,0 -70.49135256987053,-33.19179336792094,0 -70.49038342629063,-33.19170560676635,0 -70.48981779198762,-33.19188281466288,0 -70.48950482534663,-33.19180511946866,0 -70.48923550173365,-33.19141651383555,0 -70.48898762086762,-33.1914462487297,0 -70.48885616774568,-33.19198117617456,0 -70.48887496808712,-33.19236853284222,0 -70.48856799516625,-33.19224751859046,0 -70.48842678354178,-33.19198741435002,0 -70.48799694122286,-33.1918889293274,0 -70.48753196004571,-33.19152635833699,0 -70.48742257783681,-33.19162401883769,0 -70.48750070439269,-33.19194751068643,0 -70.48750979976857,-33.19231825237951,0 -70.48794383099151,-33.19285726259808,0 -70.48793713211504,-33.19312244229024,0 -70.4846431955061,-33.19406480234717,0 -70.48385151851609,-33.19498348832045,0 -70.48330457241616,-33.19534516335497,0 -70.48315601879696,-33.19529272703636,0 -70.48314399982397,-33.1951580172902,0 -70.48366407310132,-33.19473298189894,0 -70.48361804637472,-33.19371892415163,0 -70.48324545280781,-33.19299217800602,0 -70.48303050563497,-33.19270326601958,0 -70.48096638431512,-33.19506185695657,0 -70.48070818980078,-33.19426939341383,0 -70.48049519378486,-33.19386198215624,0 -70.48030602561393,-33.19314883463255,0 -70.48058882096211,-33.19264114989546,0 -70.48029926568282,-33.19215277309573,0 -70.48044770254849,-33.19081648367233,0 -70.48040670532178,-33.19072740490777,0 -70.47923346377135,-33.19233421873101,0 -70.47908179085755,-33.19297991479529,0 -70.4784732163502,-33.19424803406265,0 -70.4777876007096,-33.19489650589931,0 -70.47760882022088,-33.19531915826744,0 -70.4769552860289,-33.19602669070265,0 -70.47740697864467,-33.19655074487221,0 -70.47740400605109,-33.19670019446352,0 -70.47712932177468,-33.19699424565325,0 -70.47609747082571,-33.19767698993813,0 -70.47625480531271,-33.19845300520993,0 -70.47653767917259,-33.19877834630879,0 -70.47730814625078,-33.19907030871022,0 -70.47747194307959,-33.19911922492587,0 -70.47723130318212,-33.19921219126246,0 -70.4759732719338,-33.1992087976227,0 -70.47533043792014,-33.19908648332822,0 -70.4750925175229,-33.19889709747985,0 -70.47478309932164,-33.19837945435539,0 -70.47452065217617,-33.19761022739619,0 -70.47434543222812,-33.19734019889272,0 -70.47454482782483,-33.19689227845697,0 -70.47436748423735,-33.19692562892268,0 -70.47395328293297,-33.19717567416417,0 -70.47397197969347,-33.19753824910615,0 -70.47351423200179,-33.19864273154291,0 -70.47318302005394,-33.19949806280838,0 -70.47307663703729,-33.20053147260523,0 -70.47311118849548,-33.20140491593801,0 -70.47300822240327,-33.20173939282954,0 -70.47247786828743,-33.20137107810637,0 -70.47208270225711,-33.20068069086479,0 -70.47174199698397,-33.19987818839928,0 -70.47145621324086,-33.19900230232317,0 -70.47132517779117,-33.19840889432299,0 -70.47140875020176,-33.19748447505326,0 -70.47124935162601,-33.19699856537471,0 -70.47115605534179,-33.19665914407477,0 -70.47141422944142,-33.19576656984606,0 -70.47164990267373,-33.19550573035235,0 -70.4718733973863,-33.1944635466856,0 -70.47182736775464,-33.19406988908365,0 -70.47217994031692,-33.19336862543703,0 -70.47277900914702,-33.19276117435732,0 -70.47295516364531,-33.19229119604506,0 -70.47300380642524,-33.19219301094198,0 -70.47208121279769,-33.1926530738082,0 -70.47098403960629,-33.19359875493782,0 -70.47055718561566,-33.19449340345336,0 -70.46902588208428,-33.19652418335946,0 -70.46888610054552,-33.19696862777067,0 -70.46894172063081,-33.19756412180098,0 -70.46848793379924,-33.19842861959432,0 -70.46786173465001,-33.19874049365751,0 -70.46715321470913,-33.19876739005571,0 -70.46517948371051,-33.19951562081499,0 -70.46503894399471,-33.20065324240196,0 -70.46530572442093,-33.20137468761203,0 -70.46501421193925,-33.20280321793751,0 -70.46439930689837,-33.20385033213311,0 -70.46429273061555,-33.20437168856107,0 -70.46337759464718,-33.20574482039118,0 -70.46340374081987,-33.20617402743126,0 -70.46508952348621,-33.207919163275,0 -70.46608519123897,-33.20837866064475,0 -70.46691701650009,-33.20856818939969,0 -70.46785678457574,-33.20969250621344,0 -70.46865296223615,-33.21025674039793,0 -70.46895797543392,-33.21087468010925,0 -70.46908227332625,-33.21161739292251,0 -70.46903099256248,-33.21187643765687,0 -70.4686665276693,-33.21203772682436,0 -70.46833961471073,-33.21169946160033,0 -70.46706019763762,-33.21090178976595,0 -70.46517648820534,-33.21082077564223,0 -70.46341304190389,-33.21136123399927,0 -70.46293257903002,-33.21176484969236,0 -70.46063744374941,-33.2116289007583,0 -70.45788046485991,-33.21059065632435,0 -70.45555904351338,-33.21016796788112,0 -70.45211727299646,-33.20846082533873,0 -70.45109591559228,-33.20727452319186,0 -70.45079672734808,-33.20588587734257,0 -70.45008455580259,-33.20548016766984,0 -70.44884960531819,-33.20515832421668,0 -70.44861819001753,-33.20476824025106,0 -70.44844125354085,-33.20472200618993,0 -70.4481584303706,-33.20498185203861,0 -70.44805217140257,-33.20536591599929,0 -70.44716821965319,-33.20586383129209,0 -70.44685889549173,-33.2065853110644,0 -70.44477580028585,-33.206743805366,0 -70.44369421684132,-33.20689119126978,0 -70.44367069702813,-33.20707621025875,0 -70.44405898602841,-33.20728720814064,0 -70.4441371693642,-33.20741928188629,0 -70.44318523186388,-33.20760997831493,0 -70.44278041664556,-33.20792973480696,0 -70.44206884341186,-33.20890065321821,0 -70.44135691347219,-33.20906375401319,0 -70.44092984755339,-33.20868555109586,0 -70.44096899375056,-33.20796719187403,0 -70.43964629866367,-33.20821364628493,0 -70.43682408783579,-33.20906631921916,0 -70.43624206701078,-33.20902952832074,0 -70.43577411499693,-33.2081364670298,0 -70.43509576594025,-33.20765914033034,0 -70.43498122893568,-33.20690024251627,0 -70.43665749070404,-33.20617429594957,0 -70.4373008365331,-33.20490525534929,0 -70.43737978648677,-33.20392122329774,0 -70.43661177103884,-33.20346438613409,0 -70.43645296817596,-33.20277444458495,0 -70.43538774859915,-33.20157819836751,0 -70.43593104334809,-33.20067716756527,0 -70.43679003818843,-33.20035093960403,0 -70.4370279840908,-33.20003257360618,0 -70.43604443167543,-33.19955461204064,0 -70.43498974134113,-33.19862365075826,0 -70.4351468718864,-33.19774655990118,0 -70.43481912042672,-33.19731501374747,0 -70.43424252355227,-33.19709192959617,0 -70.4340752294702,-33.19653949373534,0 -70.43241475802085,-33.19517776083497,0 -70.43088590774542,-33.19481258646777,0 -70.42966046471292,-33.19390150682297,0 -70.42684224974252,-33.19272533478279,0 -70.42635129732552,-33.19293147739116,0 -70.42738042990395,-33.19396601202436,0 -70.42750530261054,-33.19487101399759,0 -70.42613143377417,-33.19628896723714,0 -70.42585186638692,-33.19725708293173,0 -70.42382541400725,-33.19863334608473,0 -70.42183419677085,-33.20132550666884,0 -70.42159995733108,-33.20228158731506,0 -70.42101948685075,-33.20284209575057,0 -70.4209258612259,-33.20374002959699,0 -70.42050376882952,-33.20431301452797,0 -70.42043498358423,-33.20542152480361,0 -70.41928471667738,-33.20741164678575,0 -70.41709912960664,-33.20761101514779,0 -70.41662798991743,-33.20802296627122,0 -70.41599536540892,-33.20819930807492,0 -70.41514429880355,-33.20776422270144,0 -70.41435715657214,-33.20771743077337,0 -70.4143537218514,-33.20815219769,0 -70.41410955645556,-33.20968707783408,0 -70.41545811248388,-33.21186632259453,0 -70.41557091528864,-33.21271184770657,0 -70.41664242205643,-33.21397342370699,0 -70.41631960990381,-33.21676291599697,0 -70.4164184351926,-33.21861021612314,0 -70.41564252124364,-33.21970733510713,0 -70.41445649287068,-33.21982877625607,0 -70.41404150313851,-33.22044813248356,0 -70.41378297427522,-33.22198694405078,0 -70.41300588943547,-33.22267476841881,0 -70.41323165886688,-33.22408947256874,0 -70.41276647440542,-33.22500107197947,0 -70.41152082534549,-33.22619551222753,0 -70.41106897448968,-33.22712293863811,0 -70.41106409679243,-33.22795827382387,0 -70.41048595527242,-33.2288944698689,0 -70.40964475849192,-33.23004978311836,0 -70.40945499826371,-33.23062531542536,0 -70.40842771363192,-33.23066305661877,0 -70.40478325338835,-33.22931065934839,0 -70.40421456974052,-33.22860800760665,0 -70.40287616781175,-33.2284056165354,0 -70.40183107820172,-33.22819155212459,0 -70.40098956816814,-33.22813195487143,0 -70.39933383625642,-33.22724968011982,0 -70.39807545648202,-33.22722549237748,0 -70.39713184297609,-33.22716562206396,0 -70.39519650917914,-33.22672369035617,0 -70.39471439230088,-33.22673549498453,0 -70.39399117620985,-33.22692575484677,0 -70.3931134305754,-33.22631899742766,0 -70.39179335631839,-33.22606932876083,0 -70.39032263320487,-33.22618784764931,0 -70.3895743626187,-33.22539130669286,0 -70.3889945889804,-33.22508252170132,0 -70.38765651507723,-33.22473514204368,0 -70.38652024833389,-33.22410448465046,0 -70.38608051134506,-33.2231895358398,0 -70.38549842563908,-33.22253618185386,0 -70.38369046683455,-33.22175014522744,0 -70.38250306718223,-33.22075279017999,0 -70.38170753022689,-33.22055119392154,0 -70.38121691321987,-33.21935264525877,0 -70.38042907628042,-33.21898625528276,0 -70.37826423638934,-33.21802732733317,0 -70.37736515984241,-33.217577424899,0 -70.37627459371613,-33.21650754634246,0 -70.3752927564357,-33.21575696755012,0 -70.37482508545408,-33.21472756599303,0 -70.37459893337189,-33.21410526370236,0 -70.37380255437817,-33.21379574793219,0 -70.37320992737787,-33.21293834242056,0 -70.3728200679942,-33.21237984430791,0 -70.37192903050388,-33.21191484953589,0 -70.37127946017596,-33.2117909345052,0 -70.37074947593938,-33.21206854629648,0 -70.36920529430441,-33.21141280642905,0 -70.36781730156126,-33.21036122091263,0 -70.36685088115301,-33.20987692215981,0 -70.36531067717453,-33.20741138043667,0 -70.36507542998602,-33.20636333554999,0 -70.36566098728672,-33.20375318286728,0 -70.36558102364812,-33.20239415929765,0 -70.36607479502776,-33.2009209689965,0 -70.36739881067203,-33.19746364147436,0 -70.36605448634219,-33.19536582187493,0 -70.36505990875163,-33.19345777657593,0 -70.36174712494656,-33.19106959702469,0 -70.36080975862895,-33.1890458980204,0 -70.36174183066981,-33.18598199805814,0 -70.36108835212845,-33.18399764574302,0 -70.36051259395799,-33.18077989028524,0 -70.36015966913038,-33.17990759039814,0 -70.36077111607412,-33.17819020513316,0 -70.36069326648557,-33.17616474680086,0 -70.35984802084357,-33.17475238940799,0 -70.35978807199915,-33.17435002192972,0 -70.35909018006502,-33.17377368436255,0 -70.35866635119832,-33.1731083501222,0 -70.35870646692605,-33.17175730255231,0 -70.35898833334352,-33.17127504101203,0 -70.3598260555196,-33.16924053753371,0 -70.36003300386088,-33.16880791664465,0 -70.36018028992613,-33.1674662218844,0 -70.36088215950097,-33.16664913218048,0 -70.36136787550838,-33.16621862125303,0 -70.36113561313998,-33.16573392763591,0 -70.36127565648799,-33.1655309608905,0 -70.36204838657871,-33.16514004580109,0 -70.36263080735132,-33.16467055897149,0 -70.36292647666117,-33.16382622004291,0 -70.36394852043139,-33.16288072944881,0 -70.36485978800796,-33.16238283371943,0 -70.36553497150808,-33.16226705016057,0 -70.36619932315267,-33.16209254034705,0 -70.36648230025872,-33.16089619121711,0 -70.36686713527783,-33.16018406608211,0 -70.3674447063661,-33.15974033338988,0 -70.36782212429807,-33.15802896714058,0 -70.36775219088496,-33.15712865409567,0 -70.36780818359453,-33.15665986168703,0 -70.36776347654092,-33.15551230912244,0 -70.36771398201412,-33.15517200645913,0 -70.36772931262256,-33.15468771058597,0 -70.36732413011367,-33.15401927100595,0 -70.36741659868898,-33.15393845808843,0 -70.36777821915372,-33.15358427434446,0 -70.36776325552572,-33.15233687744644,0 -70.36797751986856,-33.15179737892112,0 -70.36795825588518,-33.15148763546806,0 -70.3681470345737,-33.1510396520256,0 -70.36821146957301,-33.15062789724445,0 -70.36993097908686,-33.14889373680566,0 -70.37168639982477,-33.14767050408252,0 -70.37283332198135,-33.14616674818526,0 -70.37384805481445,-33.14525580415376,0 -70.37586294486587,-33.14380958042405,0 -70.37844598459994,-33.14237950034908,0 -70.38028046488031,-33.13975848455215,0 -70.38094366394262,-33.13823040064751,0 -70.38084270049602,-33.13735343287017,0 -70.3814954398652,-33.13669334869731,0 -70.38287236465851,-33.13528424794569,0 -70.38275329464372,-33.13467969763171,0 -70.38218962534714,-33.13441211045853,0 -70.38140242955197,-33.13339784441927,0 -70.3813812327838,-33.13310507433009,0 -70.38148907724759,-33.13235025265187,0 -70.38165085053798,-33.13202615062313,0 -70.38157819464803,-33.13175804925586,0 -70.38182333300718,-33.13153936138399,0 -70.38214027472755,-33.13150611737403,0 -70.38199036741092,-33.13130709642951,0 -70.38133457675866,-33.13023971564405,0 -70.38084941063003,-33.12976982402736,0 -70.38035613267823,-33.12961801313367,0 -70.37955773678536,-33.12904703108648,0 -70.37935159431832,-33.12865574457232,0 -70.37877632362412,-33.12706065630559,0 -70.37753482259396,-33.12576538682048,0 -70.37706728373215,-33.12531594930977,0 -70.37602679986449,-33.12499508859653,0 -70.37521153100454,-33.12446732656485,0 -70.37471314683475,-33.12356023021653,0 -70.37471489156358,-33.12269399848203,0 -70.37455347981236,-33.12225947041438,0 -70.37479237622611,-33.12119579739553,0 -70.37467557300606,-33.12048567737122,0 -70.37437458895189,-33.12017974164287,0 -70.37356327561247,-33.11983215979568,0 -70.37317334936273,-33.11854492115931,0 -70.37259120545612,-33.1181339609742,0 -70.37315274871395,-33.11790948535613,0 -70.37280619297408,-33.11753218048982,0 -70.37330543280056,-33.11738754104464,0 -70.37283039104443,-33.1170178882808,0 -70.37361790812341,-33.11654422549456,0 -70.37368080824488,-33.11630977438578,0 -70.37308208515951,-33.11402639271836,0 -70.37246038234922,-33.11317883779546,0 -70.3719268621624,-33.11273610827482,0 -70.37072750986115,-33.11210166266711,0 -70.36978185997677,-33.11186122457062,0 -70.36826017096945,-33.11122258545643,0 -70.36750171868694,-33.11189979101169,0 -70.36760590433256,-33.11286248223458,0 -70.36803602166526,-33.11413393319238,0 -70.3670591570955,-33.11299774158338,0 -70.36575569649014,-33.1114634709728,0 -70.36499808756439,-33.11085348938526,0 -70.36469167577724,-33.11033995434462,0 -70.36468727960734,-33.10948139736657,0 -70.36483392311636,-33.10901613326777,0 -70.36526008908911,-33.10904765166987,0 -70.36482367621015,-33.10862360518782,0 -70.36396478530537,-33.10839317667254,0 -70.36273315399259,-33.10859722325435,0 -70.36212752496716,-33.10899025312318,0 -70.36147721085189,-33.1105280721639,0 -70.36146138860089,-33.11157937587258,0 -70.36133864115402,-33.11163883369015,0 -70.36094607496078,-33.11096186228242,0 -70.35981560799056,-33.10982386077687,0 -70.35878833356338,-33.10949978224459,0 -70.35625508183645,-33.10935896700101,0 -70.35491990084282,-33.1095356782765,0 -70.35298756541938,-33.10998079743021,0 -70.35249446085149,-33.11026731316359,0 -70.35203599990736,-33.11059443633724,0 -70.35135204842712,-33.11054812337248,0 -70.35106611414074,-33.1103648959211,0 -70.35058140063398,-33.11055721281407,0 -70.35045342369274,-33.10971249553869,0 -70.35125844922293,-33.10901200838642,0 -70.35021299504962,-33.10915873018764,0 -70.34973910815386,-33.10862637334422,0 -70.34957637439724,-33.10844095574094,0 -70.3489702211732,-33.10944985886276,0 -70.34860534682089,-33.10958405677408,0 -70.34798847056905,-33.10909532586329,0 -70.34666519563406,-33.10869389537928,0 -70.34528951335267,-33.1089929548393,0 -70.34389212777344,-33.10924685767427,0 -70.34597007864959,-33.10971337675642,0 -70.34680104179033,-33.11076969616542,0 -70.34702762587543,-33.11166069054651,0 -70.34739581598951,-33.11226900947376,0 -70.34757971821485,-33.11343090608024,0 -70.34947728597619,-33.11439866944891,0 -70.34986405603658,-33.1165024778068,0 -70.35026362090501,-33.11892262436812,0 -70.34859300896915,-33.12242271861058,0 -70.34080090974517,-33.12462115055985,0 -70.34056144977019,-33.12581034609757,0 -70.33833507023871,-33.13065974920016,0 -70.33824761052037,-33.13218942256614,0 -70.33718764093227,-33.13244007823441,0 -70.33587273626247,-33.13368036146672,0 -70.33432424799396,-33.134496869649,0 -70.33303886177166,-33.13619567608276,0 -70.33180735318393,-33.13671098540716,0 -70.33175137595889,-33.13903351454397,0 -70.33138639746926,-33.140346232976,0 -70.33067565360417,-33.14095360340249,0 -70.33086126858733,-33.14358748285498,0 -70.33111135526408,-33.14400450002196,0 -70.33178020994632,-33.1457251109624,0 -70.33172706940344,-33.14707128974899,0 -70.3322952581288,-33.147830193439,0 -70.33190538689946,-33.14861176210287,0 -70.33202834310264,-33.14954629964064,0 -70.33218204696074,-33.15094063355675,0 -70.33108399877338,-33.15654516297209,0 -70.3307185590874,-33.15833387106264,0 
					</coordinates>
				</LineString>
			</Placemark>
			<Placemark id="03185DB9EA333690925A">
				<name>Sistema de Agua Recirculada</name>
				<LookAt>
					<longitude>-70.31290087291583</longitude>
					<latitude>-33.15593336091065</latitude>
					<altitude>3462.253384504899</altitude>
					<heading>0</heading>
					<tilt>0</tilt>
					<range>43180.57220627089</range>
					<altitudeMode>absolute</altitudeMode>
					<gx:fovy>35.00010218633699</gx:fovy>
				</LookAt>
				<styleUrl>#__managed_style_0A485733163D3D1AF223</styleUrl>
				<LineString>
					<coordinates>
						-70.70547999576178,-33.13444355213426,0 -70.70482874376306,-33.13770950890597,0 -70.70330815076019,-33.13955320914889,0 -70.70119978901134,-33.14103121711199,0 -70.70125003550734,-33.14339337777096,0 -70.69944885468689,-33.14540054909094,0 -70.6740558315315,-33.15408852208008,0 -70.64573615480032,-33.15550773090283,0 -70.62656504028357,-33.16551005143675,0 -70.62617797596019,-33.17243648529656,0 -70.62548814459073,-33.17802606461296,0 -70.62715823677883,-33.17890729901778,0 -70.6269958311546,-33.18057878075579,0 -70.6271417164818,-33.18179419375239,0 -70.62652324236807,-33.18276544079416,0 -70.62082431415632,-33.18580574092897,0 -70.61381092763401,-33.18679603751285,0 -70.60534790647722,-33.19228431550923,0 -70.59649763429258,-33.19610061315906,0 -70.58732708827642,-33.2017382385767,0 -70.57813506131666,-33.20045564229905,0 -70.56764381123639,-33.19630814027445,0 -70.54136712759939,-33.19315188872422,0 -70.53947427746392,-33.19314195407743,0 -70.5303725447713,-33.19277251987062,0 -70.52545090991836,-33.19171550150085,0 -70.51612941793155,-33.19047288721039,0 -70.51196002899185,-33.19186983143842,0 -70.50556069573042,-33.19277877985756,0 -70.49195142406818,-33.19182041530784,0 -70.44555313960531,-33.20718846562337,0 -70.44016857490359,-33.20809597246627,0 -70.43613718923575,-33.20898327965007,0 -70.43489512687445,-33.20745336718848,0 -70.43670279474507,-33.20622760926155,0 -70.4374854072972,-33.20424155878192,0 -70.43708455869259,-33.20364828636745,0 -70.43654276249084,-33.20343689992776,0 -70.43580191092734,-33.20202636696935,0 -70.43547191133619,-33.20107211401152,0 -70.43716065204036,-33.20021397524558,0 -70.43555628068691,-33.19913170839568,0 -70.43508347292088,-33.19749844067893,0 -70.43413837198226,-33.19699750036134,0 -70.43323990457255,-33.19583162591785,0 -70.43036411071952,-33.19451598153336,0 -70.42663028560818,-33.19266991784031,0 -70.42621601494939,-33.19288671062199,0 -70.42744176027574,-33.19435813632817,0 -70.42745729639971,-33.1949815658453,0 -70.42595046349076,-33.19675010979542,0 -70.42588437923473,-33.19718362586154,0 -70.42413491903059,-33.19842895728249,0 -70.42191891584329,-33.20118583512377,0 -70.42172480213279,-33.20190230219593,0 -70.42095921519629,-33.20271088646484,0 -70.42097941513113,-33.20328736895376,0 -70.42092276257931,-33.2038604796288,0 -70.42051288064469,-33.20431417710191,0 -70.42058265047994,-33.20534824988387,0 -70.41944399483556,-33.20714769315394,0 -70.4176983411065,-33.20751727829231,0 -70.41623316849703,-33.20806244962831,0 -70.41545950918062,-33.20803672036283,0 -70.41493773371424,-33.20768135099046,0 -70.4142642585599,-33.20772890928124,0 -70.41440443709111,-33.2083006921757,0 -70.41408965934988,-33.20898732988304,0 -70.41454583196474,-33.2107480303335,0 -70.415411621212,-33.21177807075296,0 -70.41549005121659,-33.21251665374243,0 -70.41650045107913,-33.21393623805101,0 -70.41644056217361,-33.21553928120446,0 -70.4163032756282,-33.21703863120745,0 -70.41655586175872,-33.21815349782426,0 -70.41606601244807,-33.21943669839319,0 -70.41483886737653,-33.21991966839637,0 -70.41425310016139,-33.22024559059044,0 -70.41367072332667,-33.2221419207296,0 -70.41307077078045,-33.22266397455196,0 -70.41328267887893,-33.22430727849954,0 -70.4120349148772,-33.22564229085892,0 -70.41111841165416,-33.22694227007907,0 -70.41106389338702,-33.22796828947292,0 -70.41066539994692,-33.22862169400041,0 -70.41003993693806,-33.22970922002739,0 -70.40944252280235,-33.23031263200633,0 -70.40906620505761,-33.2306370251194,0 -70.4048491022169,-33.22936079398356,0 -70.40361218257783,-33.22845374833373,0 -70.40255511118795,-33.22845572400877,0 -70.40126350252035,-33.22826391298427,0 -70.39959053622356,-33.22751475191372,0 -70.39905124998083,-33.22713655320107,0 -70.39776144396683,-33.22725753526646,0 -70.39559782909537,-33.22684885670044,0 -70.39448647569535,-33.22677688888606,0 -70.39366551415775,-33.22692588625294,0 -70.39267136741955,-33.22613651470477,0 -70.39059991112249,-33.2261711629247,0 -70.38961164585713,-33.22559684076904,0 -70.38908606322144,-33.22512425693235,0 -70.38778596875399,-33.22475876351863,0 -70.38668867094304,-33.22437224385114,0 -70.38620678388378,-33.22336922352964,0 -70.38543291788329,-33.22247987745035,0 -70.38283723133662,-33.22107599774428,0 -70.38190111826952,-33.22057903101285,0 -70.38128626599057,-33.2194502310027,0 -70.38072162766191,-33.21902064680747,0 -70.37905706299513,-33.21838741196301,0 -70.37777732172376,-33.21779510208744,0 -70.37679967123596,-33.2173201778816,0 -70.37576144523776,-33.21621482302884,0 -70.37435932380406,-33.21455923258337,0 -70.3740334395678,-33.21343505702628,0 -70.37106286455214,-33.2118815393086,0 -70.36859858856485,-33.21064605948033,0 -70.36597029648112,-33.20880310653146,0 -70.365428176832,-33.20712978882303,0 -70.36547738827507,-33.20390526360111,0 -70.36550062061674,-33.20223156365822,0 -70.36693345716785,-33.19808295276707,0 -70.36644647413904,-33.19549244554646,0 -70.36556166173627,-33.19437681209167,0 -70.36385051028377,-33.19278403187894,0 -70.36079669637152,-33.19005318372297,0 -70.36076246818492,-33.18877638019753,0 -70.3614047900154,-33.18678586114146,0 -70.36145153607048,-33.18607502894091,0 -70.35828242523442,-33.184549979267,0 -70.35478751896355,-33.1835829767702,0 -70.3503325553711,-33.18077848209982,0 -70.34817639716462,-33.17821272028257,0 -70.33946691388012,-33.17659525133914,0 -70.33501315469788,-33.17395097886008,0 -70.33095344134182,-33.17314592946984,0 -70.32808501361826,-33.17233748249404,0 -70.32601486456929,-33.17241152043179,0 -70.32379439453466,-33.17185362990477,0 -70.32333141655195,-33.17151329626246,0 -70.32349121056998,-33.17067940158534,0 -70.32297009286619,-33.16898175237681,0 -70.3223573554227,-33.16775812789542,0 -70.32059893131679,-33.16751739488037,0 -70.31728247527131,-33.16743132967079,0 -70.3133448843092,-33.16478487543194,0 -70.31210917734988,-33.16426253644196,0 -70.31165026176247,-33.16326294405867,0 -70.30698113972582,-33.16144772118705,0 -70.30415870299099,-33.15876209021979,0 -70.30110738984625,-33.15745433908886,0 -70.30022569172803,-33.15614042251327,0 -70.29881116284314,-33.15560644226971,0 -70.29699156575484,-33.1554190006874,0 -70.29419540404871,-33.15448005523359,0 -70.29403243247796,-33.15397345081016,0 -70.29368036199084,-33.15358637920826,0 -70.29355087956452,-33.15322221391093,0 -70.2933605620447,-33.15282940298327,0 -70.2926791121229,-33.15230320743658,0 
					</coordinates>
				</LineString>
			</Placemark>
		</Folder>
		<atom:link rel="app" href="https://www.google.com/earth/about/versions/#earth-pro" title="Google Earth Pro 7.3.6.10441"></atom:link>
	</Folder>
</Document>
</kml>
